{"type": "FeatureCollection", "features": [ {"type": "Feature", "properties": {"norad_id": 66516, "name": "STARLINK-35924", "group": "last-30-days", "lat": 13.166910054160441, "lon": 83.37455737614737, "alt_km": 413.1548071466632, "timestamp": "2025-12-10T04:57:28.365839+00:00", "meta": {"OBJECT_NAME": "STARLINK-35924", "OBJECT_ID": "2025-265A", "EPOCH": "2025-12-09T20:00:01.999008", "MEAN_MOTION": 15.50618238, "ECCENTRICITY": 0.0001846, "INCLINATION": 43.0003, "RA_OF_ASC_NODE": 71.0188, "ARG_OF_PERICENTER": 277.7901, "MEAN_ANOMALY": 175.911, "EPHEMERIS_TYPE": 0, "CLASSIFICATION_TYPE": "U", "NORAD_CAT_ID": 66516, "ELEMENT_SET_NO": 999, "REV_AT_EPOCH": 450, "BSTAR": -0.00098702, "MEAN_MOTION_DOT": -0.00057902, "MEAN_MOTION_DDOT": 0}, "tle": {"line1": "1 66516U 25265A   25343.83335647 -.00057902  00000+0 -98702-3 0  9993", "line2": "2 66516  43.0003  71.0188 0001846 277.7901 175.9110 15.50618238  4505"}}, "geometry": {"type": "Point", "coordinates": [83.37455737614737, 13.166910054160441]}}, {"type": "Feature", "properties": {"norad_id": 66517, "name": "STARLINK-35937", "group": "last-30-days", "lat": 14.424588502738688, "lon": 84.85486090051957, "alt_km": 413.12611580802695, "timestamp": "2025-12-10T04:57:28.365851+00:00", "meta": {"OBJECT_NAME": "STARLINK-35937", "OBJECT_ID": "2025-265B", "EPOCH": "2025-12-09T20:00:01.999008", "MEAN_MOTION": 15.50662647, "ECCENTRICITY": 0.0001847, "INCLINATION": 42.9999, "RA_OF_ASC_NODE": 71.0153, "ARG_OF_PERICENTER": 279.0906, "MEAN_ANOMALY": 176.5245, "EPHEMERIS_TYPE": 0, "CLASSIFICATION_TYPE": "U", "NORAD_CAT_ID": 66517, "ELEMENT_SET_NO": 999, "REV_AT_EPOCH": 452, "BSTAR": -0.0031093, "MEAN_MOTION_DOT": -0.0017918, "MEAN_MOTION_DDOT": 0}, "tle": {"line1": "1 66517U 25265B   25343.83335647 -.00179180  00000+0 -31093-2 0  9996", "line2": "2 66517  42.9999  71.0153 0001847 279.0906 176.5245 15.50662647  4522"}}, "geometry": {"type": "Point", "coordinates": [84.85486090051957, 14.424588502738688]}}, {"type": "Feature", "properties": {"norad_id": 66518, "name": "STARLINK-35962", "group": "last-30-days", "lat": 15.676467758154294, "lon": 86.35404747958844, "alt_km": 412.90930820563244, "timestamp": "2025-12-10T04:57:28.365863+00:00", "meta": {"OBJECT_NAME": "STARLINK-35962", "OBJECT_ID": "2025-265C", "EPOCH": "2025-12-09T20:00:01.999008", "MEAN_MOTION": 15.50655778, "ECCENTRICITY": 0.0001911, "INCLINATION": 42.9998, "RA_OF_ASC_NODE": 71.0097, "ARG_OF_PERICENTER": 281.4537, "MEAN_ANOMALY": 176.0776, "EPHEMERIS_TYPE": 0, "CLASSIFICATION_TYPE": "U", "NORAD_CAT_ID": 66518, "ELEMENT_SET_NO": 999, "REV_AT_EPOCH": 452, "BSTAR": -0.0028014, "MEAN_MOTION_DOT": -0.00161789, "MEAN_MOTION_DDOT": 0}, "tle": {"line1": "1 66518U 25265C   25343.83335647 -.00161789  00000+0 -28014-2 0  9992", "line2": "2 66518  42.9998  71.0097 0001911 281.4537 176.0776 15.50655778  4529"}}, "geometry": {"type": "Point", "coordinates": [86.35404747958844, 15.676467758154294]}}, {"type": "Feature", "properties": {"norad_id": 66519, "name": "STARLINK-35931", "group": "last-30-days", "lat": 16.918885168800262, "lon": 87.87323188314956, "alt_km": 412.87836351549413, "timestamp": "2025-12-10T04:57:28.365874+00:00", "meta": {"OBJECT_NAME": "STARLINK-35931", "OBJECT_ID": "2025-265D", "EPOCH": "2025-12-09T20:00:01.999008", "MEAN_MOTION": 15.50617943, "ECCENTRICITY": 0.0002253, "INCLINATION": 42.9999, "RA_OF_ASC_NODE": 71.0045, "ARG_OF_PERICENTER": 278.0572, "MEAN_ANOMALY": 181.4116, "EPHEMERIS_TYPE": 0, "CLASSIFICATION_TYPE": "U", "NORAD_CAT_ID": 66519, "ELEMENT_SET_NO": 999, "REV_AT_EPOCH": 452, "BSTAR": -0.0018439, "MEAN_MOTION_DOT": -0.00107205, "MEAN_MOTION_DDOT": 0}, "tle": {"line1": "1 66519U 25265D   25343.83335647 -.00107205  00000+0 -18439-2 0  9996", "line2": "2 66519  42.9999  71.0045 0002253 278.0572 181.4116 15.50617943  4525"}}, "geometry": {"type": "Point", "coordinates": [87.87323188314956, 16.918885168800262]}}, {"type": "Feature", "properties": {"norad_id": 66520, "name": "STARLINK-35952", "group": "last-30-days", "lat": 18.1482418000462, "lon": 89.41069328491604, "alt_km": 412.57014648192126, "timestamp": "2025-12-10T04:57:28.365884+00:00", "meta": {"OBJECT_NAME": "STARLINK-35952", "OBJECT_ID": "2025-265E", "EPOCH": "2025-12-09T20:00:01.999008", "MEAN_MOTION": 15.5065333, "ECCENTRICITY": 0.0001815, "INCLINATION": 43, "RA_OF_ASC_NODE": 70.9996, "ARG_OF_PERICENTER": 282.7021, "MEAN_ANOMALY": 178.6663, "EPHEMERIS_TYPE": 0, "CLASSIFICATION_TYPE": "U", "NORAD_CAT_ID": 66520, "ELEMENT_SET_NO": 999, "REV_AT_EPOCH": 452, "BSTAR": -0.0027678, "MEAN_MOTION_DOT": -0.00159874, "MEAN_MOTION_DDOT": 0}, "tle": {"line1": "1 66520U 25265E   25343.83335647 -.00159874  00000+0 -27678-2 0  9992", "line2": "2 66520  43.0000  70.9996 0001815 282.7021 178.6663 15.50653330  4524"}}, "geometry": {"type": "Point", "coordinates": [89.41069328491604, 18.1482418000462]}}, {"type": "Feature", "properties": {"norad_id": 66521, "name": "STARLINK-35915", "group": "last-30-days", "lat": 19.362756953761174, "lon": 90.96701541085298, "alt_km": 412.451298288458, "timestamp": "2025-12-10T04:57:28.365894+00:00", "meta": {"OBJECT_NAME": "STARLINK-35915", "OBJECT_ID": "2025-265F", "EPOCH": "2025-12-09T20:00:01.999008", "MEAN_MOTION": 15.50648082, "ECCENTRICITY": 0.0001697, "INCLINATION": 43, "RA_OF_ASC_NODE": 70.9948, "ARG_OF_PERICENTER": 279.4258, "MEAN_ANOMALY": 183.8568, "EPHEMERIS_TYPE": 0, "CLASSIFICATION_TYPE": "U", "NORAD_CAT_ID": 66521, "ELEMENT_SET_NO": 999, "REV_AT_EPOCH": 452, "BSTAR": -0.0025536, "MEAN_MOTION_DOT": -0.00147722, "MEAN_MOTION_DDOT": 0}, "tle": {"line1": "1 66521U 25265F   25343.83335647 -.00147722  00000+0 -25536-2 0  9993", "line2": "2 66521  43.0000  70.9948 0001697 279.4258 183.8568 15.50648082  4525"}}, "geometry": {"type": "Point", "coordinates": [90.96701541085298, 19.362756953761174]}}, {"type": "Feature", "properties": {"norad_id": 66522, "name": "STARLINK-35946", "group": "last-30-days", "lat": 20.571429690166873, "lon": 92.55696136874376, "alt_km": 412.2897256455535, "timestamp": "2025-12-10T04:57:28.365904+00:00", "meta": {"OBJECT_NAME": "STARLINK-35946", "OBJECT_ID": "2025-265G", "EPOCH": "2025-12-09T20:00:01.999008", "MEAN_MOTION": 15.50657484, "ECCENTRICITY": 0.000191, "INCLINATION": 42.9999, "RA_OF_ASC_NODE": 70.99, "ARG_OF_PERICENTER": 282.6409, "MEAN_ANOMALY": 182.5602, "EPHEMERIS_TYPE": 0, "CLASSIFICATION_TYPE": "U", "NORAD_CAT_ID": 66522, "ELEMENT_SET_NO": 999, "REV_AT_EPOCH": 452, "BSTAR": -0.0028847, "MEAN_MOTION_DOT": -0.00166501, "MEAN_MOTION_DDOT": 0}, "tle": {"line1": "1 66522U 25265G   25343.83335647 -.00166501  00000+0 -28847-2 0  9998", "line2": "2 66522  42.9999  70.9900 0001910 282.6409 182.5602 15.50657484  4522"}}, "geometry": {"type": "Point", "coordinates": [92.55696136874376, 20.571429690166873]}}, {"type": "Feature", "properties": {"norad_id": 66523, "name": "STARLINK-35969", "group": "last-30-days", "lat": 21.759842346149505, "lon": 94.16459054161376, "alt_km": 412.2057097020406, "timestamp": "2025-12-10T04:57:28.365914+00:00", "meta": {"OBJECT_NAME": "STARLINK-35969", "OBJECT_ID": "2025-265H", "EPOCH": "2025-12-09T20:00:01.999008", "MEAN_MOTION": 15.50651052, "ECCENTRICITY": 0.000189, "INCLINATION": 43.0002, "RA_OF_ASC_NODE": 70.9854, "ARG_OF_PERICENTER": 279.172, "MEAN_ANOMALY": 187.9478, "EPHEMERIS_TYPE": 0, "CLASSIFICATION_TYPE": "U", "NORAD_CAT_ID": 66523, "ELEMENT_SET_NO": 999, "REV_AT_EPOCH": 452, "BSTAR": -0.0026926, "MEAN_MOTION_DOT": -0.00155611, "MEAN_MOTION_DDOT": 0}, "tle": {"line1": "1 66523U 25265H   25343.83335647 -.00155611  00000+0 -26926-2 0  9995", "line2": "2 66523  43.0002  70.9854 0001890 279.1720 187.9478 15.50651052  4527"}}, "geometry": {"type": "Point", "coordinates": [94.16459054161376, 21.759842346149505]}}, {"type": "Feature", "properties": {"norad_id": 66524, "name": "STARLINK-35687", "group": "last-30-days", "lat": 22.929403417035278, "lon": 95.7944270943298, "alt_km": 412.119848263942, "timestamp": "2025-12-10T04:57:28.365927+00:00", "meta": {"OBJECT_NAME": "STARLINK-35687", "OBJECT_ID": "2025-265J", "EPOCH": "2025-12-09T20:00:01.999008", "MEAN_MOTION": 15.50622813, "ECCENTRICITY": 0.0001934, "INCLINATION": 43.0001, "RA_OF_ASC_NODE": 70.9801, "ARG_OF_PERICENTER": 275.6607, "MEAN_ANOMALY": 193.3841, "EPHEMERIS_TYPE": 0, "CLASSIFICATION_TYPE": "U", "NORAD_CAT_ID": 66524, "ELEMENT_SET_NO": 999, "REV_AT_EPOCH": 452, "BSTAR": -0.0018936, "MEAN_MOTION_DOT": -0.00110058, "MEAN_MOTION_DDOT": 0}, "tle": {"line1": "1 66524U 25265J   25343.83335647 -.00110058  00000+0 -18936-2 0  9994", "line2": "2 66524  43.0001  70.9801 0001934 275.6607 193.3841 15.50622813  4521"}}, "geometry": {"type": "Point", "coordinates": [95.7944270943298, 22.929403417035278]}}, {"type": "Feature", "properties": {"norad_id": 66525, "name": "STARLINK-35975", "group": "last-30-days", "lat": 24.088635948197414, "lon": 97.46341439560791, "alt_km": 411.8792680482293, "timestamp": "2025-12-10T04:57:28.365938+00:00", "meta": {"OBJECT_NAME": "STARLINK-35975", "OBJECT_ID": "2025-265K", "EPOCH": "2025-12-09T20:00:01.999008", "MEAN_MOTION": 15.50650683, "ECCENTRICITY": 0.0001848, "INCLINATION": 43, "RA_OF_ASC_NODE": 70.9759, "ARG_OF_PERICENTER": 279.9392, "MEAN_ANOMALY": 191.0121, "EPHEMERIS_TYPE": 0, "CLASSIFICATION_TYPE": "U", "NORAD_CAT_ID": 66525, "ELEMENT_SET_NO": 999, "REV_AT_EPOCH": 452, "BSTAR": -0.0026523, "MEAN_MOTION_DOT": -0.00153332, "MEAN_MOTION_DDOT": 0}, "tle": {"line1": "1 66525U 25265K   25343.83335647 -.00153332  00000+0 -26523-2 0  9998", "line2": "2 66525  43.0000  70.9759 0001848 279.9392 191.0121 15.50650683  4527"}}, "geometry": {"type": "Point", "coordinates": [97.46341439560791, 24.088635948197414]}}]}